ONEWEB-0578             
1 56067U 23043X   26165.22615609  .00000109  00000+0  23122-3 0  9999
2 56067  87.9258 244.5615 0002361  98.3104 261.8297 13.21824723157842
ONEWEB-0579             
1 56068U 23043Y   26165.21775903  .00000081  00000+0  16401-3 0  9994
2 56068  87.9263 244.5599 0001747 100.2503 259.8828 13.21826523157851
ONEWEB-0581             
1 56069U 23043Z   26165.18637079  .00000123  00000+0  28699-3 0  9991
2 56069  87.9101 229.3800 0002127  81.8769 278.2603 13.16593092158561
ONEWEB-0609             
1 56070U 23043AA  26165.29119975 -.00000111  00000+0 -32966-3 0  9996
2 56070  87.9001 259.7889 0002004 102.8388 257.2966 13.15549321156057
ONEWEB-0613             
1 56071U 23043AB  26165.28881483 -.00000093  00000+0 -28198-3 0  9997
2 56071  87.9001 259.8016 0001770 106.1214 254.0111 13.15550515156059
ONEWEB-0630             
1 56072U 23043AC  26165.28405820 -.00000034  00000+0 -12556-3 0  9991
2 56072  87.9005 259.7736 0001787 104.1245 256.0085 13.15547337156041
ONEWEB-0632             
1 56073U 23043AD  26165.27932179 -.00000003  00000+0 -41034-4 0  9993
2 56073  87.9004 259.7926 0001952  95.3091 264.8263 13.15548611156047
ONEWEB-0633             
1 56074U 23043AE  26165.27296955  .00000032  00000+0  52205-4 0  9991
2 56074  87.9011 259.7690 0001772 112.2152 247.9166 13.15547236156025
ONEWEB-0634             
1 56075U 23043AF  26165.25872469  .00000178  00000+0  43899-3 0  9999
2 56075  87.9002 259.8126 0002271 104.6712 255.4670 13.15548551156017
ONEWEB-0635             
1 56076U 23043AG  26165.25395430  .00000200  00000+0  49827-3 0  9991
2 56076  87.9011 259.7758 0001952  92.5281 267.6073 13.15550630156045
ONEWEB-0636             
1 56077U 23043AH  26165.24604746  .00000209  00000+0  52084-3 0  9992
2 56077  87.9005 259.7838 0001973  94.4966 265.6390 13.15549283156022
ONEWEB-0637             
1 56078U 23043AJ  26165.31576995  .00000110  00000+0  25890-3 0  9991
2 56078  87.8998 259.7866 0002265  97.0326 263.1062 13.15548987156050
ONEWEB-0647             
1 56079U 23043AK  26165.31101913  .00000067  00000+0  14264-3 0  9990
2 56079  87.8999 259.8000 0001842  97.5823 262.5517 13.15548788156046
ONEWEB-0651             
1 56080U 23043AL  26165.30626171  .00000091  00000+0  20838-3 0  9990
2 56080  87.8998 259.7946 0002106  94.5872 265.5499 13.15549077157247
ONEWEB-0718             
1 56081U 23043AM  26165.22542936 -.00000207  00000+0 -58479-3 0  9991
2 56081  87.8999 259.7913 0002340 110.7890 249.3491 13.15548371156049
ONEWEB-0561             
1 56710U 23068A   26165.31892498  .00000199  00000+0  45719-3 0  9999
2 56710  87.9192 275.0147 0001754  90.1675 269.9659 13.20772498149124
ONEWEB-0668             
1 56711U 23068B   26165.23705021  .00000161  00000+0  38839-3 0  9990
2 56711  87.9097 229.3583 0002602 100.8218 259.3206 13.16594363151391
ONEWEB-0676             
1 56712U 23068C   26165.16895678  .00000195  00000+0  47597-3 0  9999
2 56712  87.9100 229.3778 0002065  88.9057 271.2310 13.16593242151308
ONEWEB-0677             
1 56713U 23068D   26165.23136722  .00000076  00000+0  15548-3 0  9995
2 56713  87.9192 275.0236 0002263  93.2930 266.8462 13.20769874149414
ONEWEB-0678             
1 56714U 23068E   26165.26981204  .00000105  00000+0  24486-3 0  9996
2 56714  87.9011 259.7740 0001688 100.8927 259.2393 13.15548751148900
ONEWEB-0679             
1 56715U 23068F   26165.20379808 -.00000083  00000+0 -24958-3 0  9993
2 56715  87.9100 229.3624 0002587  92.5567 267.5860 13.16594828151339
ONEWEB-0680             
1 56716U 23068G   26165.21942269  .00000087  00000+0  17912-3 0  9996
2 56716  87.9262 244.5611 0002610  99.2580 260.8849 13.21828161150709
ONEWEB-0681             
1 56717U 23068H   26165.27577594 -.00000001  00000+0 -34318-4 0  9996
2 56717  87.9259 244.5514 0002097  72.3045 287.8317 13.21827136150705
ONEWEB-0682             
1 56718U 23068J   26165.29358679 -.00000065  00000+0 -20552-3 0  9994
2 56718  87.9007 259.7701 0002546 100.2670 259.8747 13.15549190149075
ONEWEB-0683             
1 56719U 23068K   26165.24129864  .00000169  00000+0  41424-3 0  9996
2 56719  87.9010 259.7803 0002238 103.5414 256.5966 13.15549032149031
ONEWEB-0684             
1 56720U 23068L   26165.24921798  .00000205  00000+0  50954-3 0  9993
2 56720  87.9008 259.7687 0001342 143.2614 216.8608 13.15548094148867
ONEWEB-0686             
1 56721U 23068M   26165.16422105  .00000183  00000+0  44471-3 0  9995
2 56721  87.9091 229.3937 0002179 107.1698 252.9672 13.16594696151317
ONEWEB-0694             
1 56722U 23068N   26165.24654821  .00000091  00000+0  20395-3 0  9994
2 56722  87.9111 229.3414 0002528  99.8995 260.2421 13.16594767151386
ONEWEB-0696             
1 56723U 23068P   26165.28247388 -.00000036  00000+0 -12897-3 0  9994
2 56723  87.9002 259.8005 0001497 100.3067 259.8232 13.15546776148984
ONEWEB-0703             
1 56724U 23068Q   26165.29199903 -.00000062  00000+0 -19838-3 0  9996
2 56724  87.9001 259.7801 0001216  85.4106 274.7163 13.15548723148874
