OBJECT_NAME,OBJECT_ID,EPOCH,MEAN_MOTION,ECCENTRICITY,INCLINATION,RA_OF_ASC_NODE,ARG_OF_PERICENTER,MEAN_ANOMALY,EPHEMERIS_TYPE,CLASSIFICATION_TYPE,NORAD_CAT_ID,ELEMENT_SET_NO,REV_AT_EPOCH,BSTAR,MEAN_MOTION_DOT,MEAN_MOTION_DDOT
ONEWEB-0578,2023-043X,2026-06-14T05:25:39.886176,13.21824723,.00023617,87.9258,244.5615,98.3104,261.8297,0,U,56067,999,15784,.23121504E-3,.109E-5,0
ONEWEB-0579,2023-043Y,2026-06-14T05:13:34.380192,13.21826523,.0001747,87.9263,244.5599,100.2503,259.8828,0,U,56068,999,15785,.16401098E-3,.81E-6,0
ONEWEB-0581,2023-043Z,2026-06-14T04:28:22.436256,13.16593092,.00021272,87.9101,229.3800,81.8769,278.2603,0,U,56069,999,15856,.28698708E-3,.123E-5,0
ONEWEB-0609,2023-043AA,2026-06-14T06:59:19.658400,13.15549321,.00020046,87.9001,259.7889,102.8388,257.2966,0,U,56070,999,15605,-.32966377E-3,-.111E-5,0
ONEWEB-0613,2023-043AB,2026-06-14T06:55:53.601312,13.15550515,.00017703,87.9001,259.8016,106.1214,254.0111,0,U,56071,999,15605,-.28197807E-3,-.93E-6,0
ONEWEB-0630,2023-043AC,2026-06-14T06:49:02.628480,13.15547337,.00017872,87.9005,259.7736,104.1245,256.0085,0,U,56072,999,15604,-.12556445E-3,-.34E-6,0
ONEWEB-0632,2023-043AD,2026-06-14T06:42:13.402656,13.15548611,.00019526,87.9004,259.7926,95.3091,264.8263,0,U,56073,999,15604,-.41034449E-4,-.3E-7,0
ONEWEB-0633,2023-043AE,2026-06-14T06:33:04.569120,13.15547236,.00017727,87.9011,259.7690,112.2152,247.9166,0,U,56074,999,15602,.52205294E-4,.32E-6,0
ONEWEB-0634,2023-043AF,2026-06-14T06:12:33.813216,13.15548551,.00022713,87.9002,259.8126,104.6712,255.4670,0,U,56075,999,15601,.43899368E-3,.178E-5,0
ONEWEB-0635,2023-043AG,2026-06-14T06:05:41.651520,13.15550630,.00019521,87.9011,259.7758,92.5281,267.6073,0,U,56076,999,15604,.4982675E-3,.2E-5,0
ONEWEB-0636,2023-043AH,2026-06-14T05:54:18.500544,13.15549283,.00019737,87.9005,259.7838,94.4966,265.6390,0,U,56077,999,15602,.52083969E-3,.209E-5,0
ONEWEB-0637,2023-043AJ,2026-06-14T07:34:42.523680,13.15548987,.00022653,87.8998,259.7866,97.0326,263.1062,0,U,56078,999,15605,.25890493E-3,.11E-5,0
ONEWEB-0647,2023-043AK,2026-06-14T07:27:52.052832,13.15548788,.00018427,87.8999,259.8000,97.5823,262.5517,0,U,56079,999,15604,.14263577E-3,.67E-6,0
ONEWEB-0651,2023-043AL,2026-06-14T07:21:01.011744,13.15549077,.00021062,87.8998,259.7946,94.5872,265.5499,0,U,56080,999,15724,.20838023E-3,.91E-6,0
ONEWEB-0718,2023-043AM,2026-06-14T05:24:37.096704,13.15548371,.00023409,87.8999,259.7913,110.7890,249.3491,0,U,56081,999,15604,-.58478582E-3,-.207E-5,0
ONEWEB-0561,2023-068A,2026-06-14T07:39:15.118272,13.20772498,.00017547,87.9192,275.0147,90.1675,269.9659,0,U,56710,999,14912,.4571907E-3,.199E-5,0
ONEWEB-0668,2023-068B,2026-06-14T05:41:21.138144,13.16594363,.00026022,87.9097,229.3583,100.8218,259.3206,0,U,56711,999,15139,.38839433E-3,.161E-5,0
ONEWEB-0676,2023-068C,2026-06-14T04:03:17.865792,13.16593242,.00020658,87.9100,229.3778,88.9057,271.2310,0,U,56712,999,15130,.47596691E-3,.195E-5,0
ONEWEB-0677,2023-068D,2026-06-14T05:33:10.127808,13.20769874,.00022633,87.9192,275.0236,93.2930,266.8462,0,U,56713,999,14941,.15548062E-3,.76E-6,0
ONEWEB-0678,2023-068E,2026-06-14T06:28:31.760256,13.15548751,.00016884,87.9011,259.7740,100.8927,259.2393,0,U,56714,999,14890,.24486026E-3,.105E-5,0
ONEWEB-0679,2023-068F,2026-06-14T04:53:28.154112,13.16594828,.00025872,87.9100,229.3624,92.5567,267.5860,0,U,56715,999,15133,-.2495818E-3,-.83E-6,0
ONEWEB-0680,2023-068G,2026-06-14T05:15:58.120416,13.21828161,.00026107,87.9262,244.5611,99.2580,260.8849,0,U,56716,999,15070,.17912424E-3,.87E-6,0
ONEWEB-0681,2023-068H,2026-06-14T06:37:07.041216,13.21827136,.00020974,87.9259,244.5514,72.3045,287.8317,0,U,56717,999,15070,-.34318031E-4,-.1E-7,0
ONEWEB-0682,2023-068J,2026-06-14T07:02:45.898656,13.15549190,.00025466,87.9007,259.7701,100.2670,259.8747,0,U,56718,999,14907,-.2055248E-3,-.65E-6,0
ONEWEB-0683,2023-068K,2026-06-14T05:47:28.202496,13.15549032,.00022389,87.9010,259.7803,103.5414,256.5966,0,U,56719,999,14903,.41423988E-3,.169E-5,0
ONEWEB-0684,2023-068L,2026-06-14T05:58:52.433472,13.15548094,.0001342,87.9008,259.7687,143.2614,216.8608,0,U,56720,999,14886,.50954375E-3,.205E-5,0
ONEWEB-0686,2023-068M,2026-06-14T03:56:28.698720,13.16594696,.00021797,87.9091,229.3937,107.1698,252.9672,0,U,56721,999,15131,.44471024E-3,.183E-5,0
ONEWEB-0694,2023-068N,2026-06-14T05:55:01.765344,13.16594767,.00025283,87.9111,229.3414,99.8995,260.2421,0,U,56722,999,15138,.20395205E-3,.91E-6,0
ONEWEB-0696,2023-068P,2026-06-14T06:46:45.743232,13.15546776,.00014975,87.9002,259.8005,100.3067,259.8232,0,U,56723,999,14898,-.12897071E-3,-.36E-6,0
ONEWEB-0703,2023-068Q,2026-06-14T07:00:28.716192,13.15548723,.00012164,87.9001,259.7801,85.4106,274.7163,0,U,56724,999,14887,-.19837537E-3,-.62E-6,0
